[{"OBJECT_NAME":"STARLINK-36780","OBJECT_ID":"2026-034S","EPOCH":"2026-03-06T22:30:40.322880","MEAN_MOTION":15.80895903,"ECCENTRICITY":0.0001773,"INCLINATION":53.1596,"RA_OF_ASC_NODE":225.004,"ARG_OF_PERICENTER":37.3686,"MEAN_ANOMALY":322.746,"EPHEMERIS_TYPE":0,"CLASSIFICATION_TYPE":"U","NORAD_CAT_ID":67866,"ELEMENT_SET_NO":999,"REV_AT_EPOCH":350,"BSTAR":0.0012314,"MEAN_MOTION_DOT":0.00249754,"MEAN_MOTION_DDOT":0},{"OBJECT_NAME":"STARLINK-36761","OBJECT_ID":"2026-034T","EPOCH":"2026-03-06T22:29:35.084832","MEAN_MOTION":15.81018195,"ECCENTRICITY":8.72e-5,"INCLINATION":53.1599,"RA_OF_ASC_NODE":224.9989,"ARG_OF_PERICENTER":47.669,"MEAN_ANOMALY":312.4406,"EPHEMERIS_TYPE":0,"CLASSIFICATION_TYPE":"U","NORAD_CAT_ID":67867,"ELEMENT_SET_NO":999,"REV_AT_EPOCH":350,"BSTAR":0.001415,"MEAN_MOTION_DOT":0.00290107,"MEAN_MOTION_DDOT":0},{"OBJECT_NAME":"STARLINK-36762","OBJECT_ID":"2026-034U","EPOCH":"2026-03-06T22:28:30.334944","MEAN_MOTION":15.81017543,"ECCENTRICITY":0.0001042,"INCLINATION":53.1597,"RA_OF_ASC_NODE":224.9943,"ARG_OF_PERICENTER":54.6308,"MEAN_ANOMALY":305.4812,"EPHEMERIS_TYPE":0,"CLASSIFICATION_TYPE":"U","NORAD_CAT_ID":67868,"ELEMENT_SET_NO":999,"REV_AT_EPOCH":350,"BSTAR":0.0014958,"MEAN_MOTION_DOT":0.00307314,"MEAN_MOTION_DDOT":0},{"OBJECT_NAME":"STARLINK-36779","OBJECT_ID":"2026-034V","EPOCH":"2026-03-06T22:27:25.494336","MEAN_MOTION":15.81020098,"ECCENTRICITY":9.31e-5,"INCLINATION":53.1597,"RA_OF_ASC_NODE":224.9891,"ARG_OF_PERICENTER":59.6204,"MEAN_ANOMALY":300.4911,"EPHEMERIS_TYPE":0,"CLASSIFICATION_TYPE":"U","NORAD_CAT_ID":67869,"ELEMENT_SET_NO":999,"REV_AT_EPOCH":350,"BSTAR":0.0014891,"MEAN_MOTION_DOT":0.00305927,"MEAN_MOTION_DDOT":0},{"OBJECT_NAME":"STARLINK-36770","OBJECT_ID":"2026-034W","EPOCH":"2026-03-06T22:25:15.528000","MEAN_MOTION":15.81033313,"ECCENTRICITY":4.4e-5,"INCLINATION":53.1597,"RA_OF_ASC_NODE":224.9786,"ARG_OF_PERICENTER":18.4123,"MEAN_ANOMALY":341.6915,"EPHEMERIS_TYPE":0,"CLASSIFICATION_TYPE":"U","NORAD_CAT_ID":67870,"ELEMENT_SET_NO":999,"REV_AT_EPOCH":350,"BSTAR":0.0015187,"MEAN_MOTION_DOT":0.00312456,"MEAN_MOTION_DDOT":0},{"OBJECT_NAME":"STARLINK-36769","OBJECT_ID":"2026-034X","EPOCH":"2026-03-06T22:26:20.487840","MEAN_MOTION":15.81034868,"ECCENTRICITY":6.87e-5,"INCLINATION":53.1598,"RA_OF_ASC_NODE":224.9838,"ARG_OF_PERICENTER":49.3295,"MEAN_ANOMALY":310.7787,"EPHEMERIS_TYPE":0,"CLASSIFICATION_TYPE":"U","NORAD_CAT_ID":67871,"ELEMENT_SET_NO":999,"REV_AT_EPOCH":350,"BSTAR":0.0016193,"MEAN_MOTION_DOT":0.00334075,"MEAN_MOTION_DDOT":0},{"OBJECT_NAME":"STARLINK-36786","OBJECT_ID":"2026-034Y","EPOCH":"2026-03-06T22:24:11.113344","MEAN_MOTION":15.80970375,"ECCENTRICITY":7.54e-5,"INCLINATION":53.1598,"RA_OF_ASC_NODE":224.9733,"ARG_OF_PERICENTER":71.9918,"MEAN_ANOMALY":288.1186,"EPHEMERIS_TYPE":0,"CLASSIFICATION_TYPE":"U","NORAD_CAT_ID":67872,"ELEMENT_SET_NO":999,"REV_AT_EPOCH":350,"BSTAR":0.00096844,"MEAN_MOTION_DOT":0.00195711,"MEAN_MOTION_DDOT":0},{"OBJECT_NAME":"STARLINK-36783","OBJECT_ID":"2026-034Z","EPOCH":"2026-03-06T22:23:06.154368","MEAN_MOTION":15.81003424,"ECCENTRICITY":8.15e-5,"INCLINATION":53.1599,"RA_OF_ASC_NODE":224.9679,"ARG_OF_PERICENTER":36.6767,"MEAN_ANOMALY":323.4311,"EPHEMERIS_TYPE":0,"CLASSIFICATION_TYPE":"U","NORAD_CAT_ID":67873,"ELEMENT_SET_NO":999,"REV_AT_EPOCH":350,"BSTAR":0.0012279,"MEAN_MOTION_DOT":0.002503,"MEAN_MOTION_DDOT":0},{"OBJECT_NAME":"STARLINK-36730","OBJECT_ID":"2026-034AA","EPOCH":"2026-03-06T22:22:01.325856","MEAN_MOTION":15.81003179,"ECCENTRICITY":7.8e-5,"INCLINATION":53.1599,"RA_OF_ASC_NODE":224.9631,"ARG_OF_PERICENTER":51.1344,"MEAN_ANOMALY":308.9748,"EPHEMERIS_TYPE":0,"CLASSIFICATION_TYPE":"U","NORAD_CAT_ID":67874,"ELEMENT_SET_NO":999,"REV_AT_EPOCH":350,"BSTAR":0.0012694,"MEAN_MOTION_DOT":0.00259061,"MEAN_MOTION_DDOT":0},{"OBJECT_NAME":"STARLINK-36727","OBJECT_ID":"2026-034AB","EPOCH":"2026-03-06T22:20:56.722848","MEAN_MOTION":15.80991438,"ECCENTRICITY":8.57e-5,"INCLINATION":53.16,"RA_OF_ASC_NODE":224.9577,"ARG_OF_PERICENTER":50.2069,"MEAN_ANOMALY":309.9029,"EPHEMERIS_TYPE":0,"CLASSIFICATION_TYPE":"U","NORAD_CAT_ID":67875,"ELEMENT_SET_NO":999,"REV_AT_EPOCH":350,"BSTAR":0.0012029,"MEAN_MOTION_DOT":0.0024491,"MEAN_MOTION_DDOT":0},{"OBJECT_NAME":"STARLINK-36743","OBJECT_ID":"2026-034AC","EPOCH":"2026-03-06T22:19:51.950496","MEAN_MOTION":15.80988395,"ECCENTRICITY":4.43e-5,"INCLINATION":53.1603,"RA_OF_ASC_NODE":224.9524,"ARG_OF_PERICENTER":75.7533,"MEAN_ANOMALY":284.3539,"EPHEMERIS_TYPE":0,"CLASSIFICATION_TYPE":"U","NORAD_CAT_ID":67876,"ELEMENT_SET_NO":999,"REV_AT_EPOCH":350,"BSTAR":0.0012275,"MEAN_MOTION_DOT":0.00250051,"MEAN_MOTION_DDOT":0},{"OBJECT_NAME":"STARLINK-36784","OBJECT_ID":"2026-034AD","EPOCH":"2026-03-06T22:18:46.920672","MEAN_MOTION":15.81008877,"ECCENTRICITY":7.88e-5,"INCLINATION":53.1602,"RA_OF_ASC_NODE":224.9475,"ARG_OF_PERICENTER":33.8149,"MEAN_ANOMALY":326.2924,"EPHEMERIS_TYPE":0,"CLASSIFICATION_TYPE":"U","NORAD_CAT_ID":67877,"ELEMENT_SET_NO":999,"REV_AT_EPOCH":350,"BSTAR":0.0012719,"MEAN_MOTION_DOT":0.00259658,"MEAN_MOTION_DDOT":0},{"OBJECT_NAME":"STARLINK-36689","OBJECT_ID":"2026-034AE","EPOCH":"2026-03-06T22:17:42.085248","MEAN_MOTION":15.81015108,"ECCENTRICITY":8.79e-5,"INCLINATION":53.1601,"RA_OF_ASC_NODE":224.9431,"ARG_OF_PERICENTER":115.3793,"MEAN_ANOMALY":244.732,"EPHEMERIS_TYPE":0,"CLASSIFICATION_TYPE":"U","NORAD_CAT_ID":67878,"ELEMENT_SET_NO":999,"REV_AT_EPOCH":350,"BSTAR":0.001299,"MEAN_MOTION_DOT":0.00265452,"MEAN_MOTION_DDOT":0},{"OBJECT_NAME":"STARLINK-36818","OBJECT_ID":"2026-035A","EPOCH":"2026-03-07T04:00:03.000096","MEAN_MOTION":15.93274098,"ECCENTRICITY":0.0001265,"INCLINATION":97.2752,"RA_OF_ASC_NODE":358.3102,"ARG_OF_PERICENTER":107.134,"MEAN_ANOMALY":40.1277,"EPHEMERIS_TYPE":0,"CLASSIFICATION_TYPE":"U","NORAD_CAT_ID":67879,"ELEMENT_SET_NO":999,"REV_AT_EPOCH":335,"BSTAR":-0.0030392,"MEAN_MOTION_DOT":-0.01065238,"MEAN_MOTION_DDOT":0.00034285},{"OBJECT_NAME":"STARLINK-36821","OBJECT_ID":"2026-035B","EPOCH":"2026-03-07T04:00:03.000096","MEAN_MOTION":15.93374242,"ECCENTRICITY":0.0001206,"INCLINATION":97.2745,"RA_OF_ASC_NODE":358.3136,"ARG_OF_PERICENTER":100.9387,"MEAN_ANOMALY":54.0826,"EPHEMERIS_TYPE":0,"CLASSIFICATION_TYPE":"U","NORAD_CAT_ID":67880,"ELEMENT_SET_NO":999,"REV_AT_EPOCH":335,"BSTAR":-0.0030384,"MEAN_MOTION_DOT":-0.01070482,"MEAN_MOTION_DDOT":0.00034634},{"OBJECT_NAME":"STARLINK-36808","OBJECT_ID":"2026-035C","EPOCH":"2026-03-07T04:00:03.000096","MEAN_MOTION":15.93340239,"ECCENTRICITY":0.0001294,"INCLINATION":97.2747,"RA_OF_ASC_NODE":358.3115,"ARG_OF_PERICENTER":104.3419,"MEAN_ANOMALY":46.0219,"EPHEMERIS_TYPE":0,"CLASSIFICATION_TYPE":"U","NORAD_CAT_ID":67881,"ELEMENT_SET_NO":999,"REV_AT_EPOCH":335,"BSTAR":-0.0030244,"MEAN_MOTION_DOT":-0.01063708,"MEAN_MOTION_DDOT":0.00034217}]
