STARLINK-36780          
1 67866U 26034S   26065.93796670  .00249754  00000+0  12314-2 0  9997
2 67866  53.1596 225.0040 0001773  37.3686 322.7460 15.80895903  3508
STARLINK-36761          
1 67867U 26034T   26065.93721163  .00290107  00000+0  14150-2 0  9991
2 67867  53.1599 224.9989 0000872  47.6690 312.4406 15.81018195  3507
STARLINK-36762          
1 67868U 26034U   26065.93646221  .00307314  00000+0  14958-2 0  9998
2 67868  53.1597 224.9943 0001042  54.6308 305.4812 15.81017543  3509
STARLINK-36779          
1 67869U 26034V   26065.93571174  .00305927  00000+0  14891-2 0  9997
2 67869  53.1597 224.9891 0000931  59.6204 300.4911 15.81020098  3502
STARLINK-36770          
1 67870U 26034W   26065.93420750  .00312456  00000+0  15187-2 0  9996
2 67870  53.1597 224.9786 0000440  18.4123 341.6915 15.81033313  3500
STARLINK-36769          
1 67871U 26034X   26065.93495935  .00334075  00000+0  16193-2 0  9993
2 67871  53.1598 224.9838 0000687  49.3295 310.7787 15.81034868  3506
STARLINK-36786          
1 67872U 26034Y   26065.93346196  .00195711  00000+0  96844-3 0  9992
2 67872  53.1598 224.9733 0000754  71.9918 288.1186 15.80970375  3501
STARLINK-36783          
1 67873U 26034Z   26065.93271012  .00250300  00000+0  12279-2 0  9992
2 67873  53.1599 224.9679 0000815  36.6767 323.4311 15.81003424  3506
STARLINK-36730          
1 67874U 26034AA  26065.93195979  .00259061  00000+0  12694-2 0  9994
2 67874  53.1599 224.9631 0000780  51.1344 308.9748 15.81003179  3508
STARLINK-36727          
1 67875U 26034AB  26065.93121207  .00244910  00000+0  12029-2 0  9997
2 67875  53.1600 224.9577 0000857  50.2069 309.9029 15.80991438  3506
STARLINK-36743          
1 67876U 26034AC  26065.93046239  .00250051  00000+0  12275-2 0  9995
2 67876  53.1603 224.9524 0000443  75.7533 284.3539 15.80988395  3501
STARLINK-36784          
1 67877U 26034AD  26065.92970973  .00259658  00000+0  12719-2 0  9991
2 67877  53.1602 224.9475 0000788  33.8149 326.2924 15.81008877  3509
STARLINK-36689          
1 67878U 26034AE  26065.92895932  .00265452  00000+0  12990-2 0  9993
2 67878  53.1601 224.9431 0000879 115.3793 244.7320 15.81015108  3502
STARLINK-36818          
1 67879U 26035A   26066.16670139 -.01065238  34285-3 -30392-2 0  9997
2 67879  97.2752 358.3102 0001265 107.1340  40.1277 15.93274098  3353
STARLINK-36821          
1 67880U 26035B   26066.16670139 -.01070482  34634-3 -30384-2 0  9995
2 67880  97.2745 358.3136 0001206 100.9387  54.0826 15.93374242  3357
STARLINK-36808          
1 67881U 26035C   26066.16670139 -.01063708  34217-3 -30244-2 0  9991
2 67881  97.2747 358.3115 0001294 104.3419  46.0219 15.93340239  3354
